[{"OBJECT_NAME":"STARLINK-31716","OBJECT_ID":"2024-062D","EPOCH":"2026-03-09T16:07:16.130208","MEAN_MOTION":15.30192908,"ECCENTRICITY":9.294e-5,"INCLINATION":53.1595,"RA_OF_ASC_NODE":207.098,"ARG_OF_PERICENTER":87.9131,"MEAN_ANOMALY":272.1976,"EPHEMERIS_TYPE":0,"CLASSIFICATION_TYPE":"U","NORAD_CAT_ID":59377,"ELEMENT_SET_NO":999,"REV_AT_EPOCH":11030,"BSTAR":5.134487e-6,"MEAN_MOTION_DOT":-2.07e-6,"MEAN_MOTION_DDOT":0},{"OBJECT_NAME":"NUSAT-49 (KLARA DAN VON NEUMANN)","OBJECT_ID":"2024-149AJ","EPOCH":"2026-03-09T19:09:16.004160","MEAN_MOTION":15.30828857,"ECCENTRICITY":0.00011321,"INCLINATION":97.3807,"RA_OF_ASC_NODE":150.738,"ARG_OF_PERICENTER":286.7761,"MEAN_ANOMALY":73.3356,"EPHEMERIS_TYPE":0,"CLASSIFICATION_TYPE":"U","NORAD_CAT_ID":60500,"ELEMENT_SET_NO":999,"REV_AT_EPOCH":8693,"BSTAR":0.00043568345,"MEAN_MOTION_DOT":0.00012912,"MEAN_MOTION_DDOT":0}]
