STARLINK-31716          
1 59377U 24062D   26068.67171446 -.00000207  00000+0  51345-5 0  9995
2 59377  53.1595 207.0980 0000929  87.9131 272.1976 15.30192908110303
NUSAT-49 (KLARA DAN VO*)
1 60500U 24149AJ  26068.79810190  .00012912  00000+0  43568-3 0  9991
2 60500  97.3807 150.7380 0001132 286.7761  73.3356 15.30828857 86935
